SENTINEL-6              
1 46984U 20086A   24040.64057327 -.00000034  00000+0  11812-3 0  9994
2 46984  66.0412 118.2645 0007806 270.2750  89.7370 12.80930541150488
